GLOBALSTAR M068 [-]     
1 32266U 07048D   23303.80377034 -.00000038  00000+0  36519-3 0  9999
2 32266  51.9890 317.0994 0000524 273.2559 257.5854 12.62769655742334
GLOBALSTAR M079 [+]     
1 37188U 10054A   23303.88137359 -.00000075  00000+0  16138-3 0  9996
2 37188  52.0015 151.9935 0001147  84.3926  21.0556 12.62269582601278
GLOBALSTAR M074 [+]     
1 37189U 10054B   23303.90747889 -.00000073  00000+0  17323-3 0  9990
2 37189  51.9993 151.3283 0000959  89.6398  14.9584 12.62271672601953
GLOBALSTAR M076 [+]     
1 37190U 10054C   23303.83467841 -.00000054  00000+0  27653-3 0  9997
2 37190  52.0007 151.6677 0001424 103.5244 269.4696 12.62263136601594
GLOBALSTAR M077 [+]     
1 37191U 10054D   23303.74268683 -.00000110  00000+0 -36973-4 0  9991
2 37191  52.0051 108.6310 0000878 104.5244 269.3477 12.62268018601953
GLOBALSTAR M075 [+]     
1 37192U 10054E   23303.86219997 -.00000063  00000+0  22822-3 0  9992
2 37192  51.9937 194.1740 0001027  71.3524   5.5535 12.62255149600822
GLOBALSTAR M073 [+]     
1 37193U 10054F   23303.76860836 -.00000111  00000+0 -41874-4 0  9990
2 37193  52.0043 107.8190 0000950 100.2461 272.6226 12.62269174602648
GLOBALSTAR M083 [+]     
1 37739U 11033A   23303.62307552 -.00000102  00000+0  91815-5 0  9990
2 37739  51.9868  57.8043 0000634  87.1959 285.4384 12.62262349571641
GLOBALSTAR M088 [+]     
1 37740U 11033B   23303.79003611 -.00000082  00000+0  12207-3 0  9992
2 37740  51.9745 323.2939 0000547  55.1287 115.7524 12.62266897567203
GLOBALSTAR M091 [+]     
1 37741U 11033C   23303.72434074 -.00000092  00000+0  63394-4 0  9992
2 37741  51.9995 285.9841 0000758  46.2701 125.1872 12.62267770567980
GLOBALSTAR M085 [+]     
1 37742U 11033D   23303.83880618 -.00000074  00000+0  16677-3 0  9995
2 37742  51.9860 237.1998 0000904  52.4655 339.9798 12.62264358568515
GLOBALSTAR M081 [+]     
1 37743U 11033E   23303.58021321 -.00000085  00000+0  10308-3 0  9993
2 37743  51.9954 240.4067 0001032  60.9078 115.8258 12.62265991568628
GLOBALSTAR M089 [+]     
1 37744U 11033F   23303.91513590 -.00000049  00000+0  30431-3 0  9994
2 37744  51.9919 193.7276 0000960  90.6335 348.6738 12.62269056569511
GLOBALSTAR M084 [+]     
1 38040U 11080A   23303.78724979 -.00000112  00000+0 -43547-4 0  9991
2 38040  52.0017  61.0868 0000849 126.1816  30.8144 12.62267145547470
GLOBALSTAR M080 [+]     
1 38041U 11080B   23303.84227981 -.00000117  00000+0 -75540-4 0  9993
2 38041  52.0066  62.3163 0001084 123.5008  43.8540 12.62265636547605
GLOBALSTAR M082 [+]     
1 38042U 11080C   23303.93525667 -.00000103  00000+0  60439-5 0  9992
2 38042  52.0103  17.4176 0000373  15.0196 156.1566 12.62267165548321
GLOBALSTAR M092 [+]     
1 38043U 11080D   23303.71549456 -.00000095  00000+0  48478-4 0  9999
2 38043  52.0064 108.4288 0000864 120.9097 251.7378 12.62273871546753
GLOBALSTAR M090 [+]     
1 38044U 11080E   23303.45162420 -.00000081  00000+0  12722-3 0  9990
2 38044  51.9910  13.4646 0000390  72.2381 301.1881 12.62262635548380
GLOBALSTAR M086 [+]     
1 38045U 11080F   23303.90884935 -.00000080  00000+0  13286-3 0  9998
2 38045  51.9922  12.5788 0001402  88.4147  82.6467 12.62263625548487
GLOBALSTAR M097 [+]     
1 39072U 13005A   23304.13533748 -.00000087  00000+0  91484-4 0  9991
2 39072  52.0048 285.8332 0000745  48.7901 311.3030 12.62272136495740
GLOBALSTAR M093 [+]     
1 39073U 13005B   23303.87127709 -.00000090  00000+0  76201-4 0  9992
2 39073  51.9804 280.8925 0000999  45.7165 314.3784 12.62268094495581
GLOBALSTAR M094 [+]     
1 39074U 13005C   23303.95051471 -.00000056  00000+0  26490-3 0  9990
2 39074  51.9946 194.4386 0001082  70.2576 289.8407 12.62269121497204
GLOBALSTAR M096 [+]     
1 39075U 13005D   23303.80532152 -.00000083  00000+0  11543-3 0  9998
2 39075  52.0067 242.9289 0000985  53.8207 306.2751 12.62265312496103
GLOBALSTAR M078 [+]     
1 39076U 13005E   23303.77874008 -.00000004  00000+0  55801-3 0  9992
2 39076  51.9885 328.3296 0000683 319.0431  41.0384 12.62263108494721
GLOBALSTAR M095 [+]     
1 39077U 13005F   23304.20127413 -.00000086  00000+0  99418-4 0  9996
2 39077  51.9811 324.5365 0000695   7.9147 352.1731 12.62270153494995
GLOBALSTAR M087 [+]     
1 52888U 22064A   23304.18514961 -.00000098  00000+0  57702-4 0  9994
2 52888  51.9757 290.3764 0009657 138.1691 221.9949 13.37556430 66740
